[{"OBJECT_NAME":"CORVUS BC2","OBJECT_ID":"2017-042X","EPOCH":"2026-03-09T22:14:39.055488","MEAN_MOTION":15.05610206,"ECCENTRICITY":0.00145863,"INCLINATION":97.3955,"RA_OF_ASC_NODE":234.2405,"ARG_OF_PERICENTER":92.385,"MEAN_ANOMALY":267.9047,"EPHEMERIS_TYPE":0,"CLASSIFICATION_TYPE":"U","NORAD_CAT_ID":42846,"ELEMENT_SET_NO":999,"REV_AT_EPOCH":47212,"BSTAR":0.00034626467,"MEAN_MOTION_DOT":4.947e-5,"MEAN_MOTION_DDOT":0},{"OBJECT_NAME":"STARLINK-5402","OBJECT_ID":"2022-177BB","EPOCH":"2026-03-09T22:00:01.999584","MEAN_MOTION":15.06971904,"ECCENTRICITY":0.00011769,"INCLINATION":43.0006,"RA_OF_ASC_NODE":118.7657,"ARG_OF_PERICENTER":284.1504,"MEAN_ANOMALY":57.0053,"EPHEMERIS_TYPE":0,"CLASSIFICATION_TYPE":"U","NORAD_CAT_ID":54869,"ELEMENT_SET_NO":999,"REV_AT_EPOCH":577,"BSTAR":0.0015918313,"MEAN_MOTION_DOT":0.00024091,"MEAN_MOTION_DDOT":0}]
